NORAD_CAT_ID,OBJECT_NAME,OBJECT_TYPE,EPOCH,MEAN_MOTION,ECCENTRICITY,INCLINATION,RA_OF_ASC_NODE,ARG_OF_PERICENTER,MEAN_ANOMALY,BSTAR,MEAN_MOTION_DOT,MEAN_MOTION_DDOT,TLE_LINE0,TLE_LINE1,TLE_LINE2,SEMIMAJOR_AXIS,PERIOD,APOGEE,PERIGEE,DECAYED
51997.0,STARLINK-3589,PAYLOAD,2022-05-23 04:00:00,15.63716592,0.0001273,53.2174,130.6993,67.6878,99.6703,-0.008175,-0.00713155,0.0,0 STARLINK-3589,1 51997U 22025AT  22143.16667824 -.00713155  00000-0 -81750-2 0  9991,2 51997  53.2174 130.6993 0001273  67.6878  99.6703 15.63716592 13004,6755.069,92.088,377.794,376.074,0.0
51997.0,STARLINK-3589,PAYLOAD,2022-05-23 14:00:01,15.63081167,0.000106,53.2173,128.6649,104.6458,249.1466,-0.0084243,-0.00716323,0.0,0 STARLINK-3589,1 51997U 22025AT  22143.58334491 -.00716323  00000-0 -84243-2 0  9998,2 51997  53.2173 128.6649 0001060 104.6458 249.1466 15.63081167  1309,6756.9,92.126,379.481,378.049,0.0
51997.0,STARLINK-3589,PAYLOAD,2022-05-23 22:00:01,15.62570153,0.0001047,53.2173,127.0373,92.4489,337.8683,-0.0085711,-0.00714445,0.0,0 STARLINK-3589,1 51997U 22025AT  22143.91668981 -.00714445  00000-0 -85711-2 0  9993,2 51997  53.2173 127.0373 0001047  92.4489 337.8683 15.62570153  1302,6758.373000000001,92.156,380.946,379.53,0.0
51997.0,STARLINK-3589,PAYLOAD,2022-05-24 05:22:43,15.63098652,0.0001203,53.2115,125.5574,87.8381,272.2773,-0.0033281,-0.00298305,0.0,0 STARLINK-3589,1 51997U 22025AT  22144.22411909 -.00298305  00000-0 -33281-2 0  9991,2 51997  53.2115 125.5574 0001203  87.8381 272.2773 15.63098652 13177,6756.85,92.125,379.527,377.902,0.0
51997.0,STARLINK-3589,PAYLOAD,2022-05-24 11:31:16,15.62741091,0.0001855,53.2108,124.3104,84.9423,275.1804,-0.0036617,-0.00322667,0.0,0 STARLINK-3589,1 51997U 22025AT  22144.48005458 -.00322667  00000-0 -36617-2 0  9992,2 51997  53.2108 124.3104 0001855  84.9423 275.1804 15.62741091 13216,6757.88,92.146,380.999,378.492,0.0
51997.0,STARLINK-3589,PAYLOAD,2022-05-24 14:00:01,15.61552499,0.0001232,53.2174,123.7902,101.2209,120.1089,-0.0089743,-0.00718511,0.0,0 STARLINK-3589,1 51997U 22025AT  22144.58334491 -.00718511  00000-0 -89743-2 0  9990,2 51997  53.2174 123.7902 0001232 101.2209 120.1089 15.61552499  1304,6761.309,92.216,384.007,382.341,0.0
51997.0,STARLINK-3589,PAYLOAD,2022-05-24 20:00:01,15.611688399999998,0.0001219,53.2172,122.572,89.6873,97.7312,-0.0090768,-0.00716155,0.0,0 STARLINK-3589,1 51997U 22025AT  22144.83335648 -.00716155  00000-0 -90768-2 0  9994,2 51997  53.2172 122.5720 0001219  89.6873  97.7312 15.61168840 13267,6762.417,92.239,385.106,383.457,0.0
51997.0,STARLINK-3589,PAYLOAD,2022-05-24 22:00:00,15.61039783,0.0001167,53.2176,122.1666,97.2571,198.6944,-0.0090771,-0.00712879,0.0,0 STARLINK-3589,1 51997U 22025AT  22144.91667824 -.00712879  00000-0 -90771-2 0  9990,2 51997  53.2176 122.1666 0001167  97.2571 198.6944 15.61039783  1305,6762.7890000000025,92.246,385.444,383.865,0.0
51997.0,STARLINK-3589,PAYLOAD,2022-05-25 14:00:01,15.60020953,0.0001053,53.2172,118.9268,94.2125,349.1403,-0.0094721,-0.00714961,0.0,0 STARLINK-3589,1 51997U 22025AT  22145.58334491 -.00714961  00000-0 -94721-2 0  9998,2 51997  53.2172 118.9268 0001053  94.2125 349.1403 15.60020953  1309,6765.733,92.306,388.311,386.886,0.0
51997.0,STARLINK-3589,PAYLOAD,2022-05-25 20:00:01,15.59637405,0.000103,53.2172,117.7115,81.7295,326.2684,-0.0095973,-0.007139,0.0,0 STARLINK-3589,1 51997U 22025AT  22145.83334491 -.00713900  00000-0 -95973-2 0  9998,2 51997  53.2172 117.7115 0001030  81.7295 326.2684 15.59637405 13428,6766.843000000003,92.329,389.405,388.011,0.0
51997.0,STARLINK-3589,PAYLOAD,2022-05-25 22:00:00,15.59379305,0.0001205,53.2158,117.3081,99.0527,57.1558,-0.0072586,-0.00545997,0.0,0 STARLINK-3589,1 51997U 22025AT  22145.91667824 -.00545997  00000-0 -72586-2 0  9990,2 51997  53.2158 117.3081 0001205  99.0527  57.1558 15.59379305  1300,6767.589,92.344,390.27,388.639,0.0
51997.0,STARLINK-3589,PAYLOAD,2022-05-26 14:00:01,15.58492458,0.0001186,53.2173,114.0744,108.567,191.2929,-0.01008,-0.00717426,0.0,0 STARLINK-3589,1 51997U 22025AT  22146.58334491 -.00717426  00000-0 -10080-1 0  9993,2 51997  53.2173 114.0744 0001186 108.5670 191.2929 15.58492458  1306,6770.156,92.397,392.824,391.219,0.0
51997.0,STARLINK-3589,PAYLOAD,2022-05-26 20:00:01,15.58107633,0.0001216,53.2172,112.8618,99.6522,163.4743,-0.010167,-0.00713482,0.0,0 STARLINK-3589,1 51997U 22025AT  22146.83334491 -.00713482  00000-0 -10167-1 0  9995,2 51997  53.2172 112.8618 0001216  99.6522 163.4743 15.58107633 13587,6771.271,92.42,393.96,392.31300000000016,0.0
51997.0,STARLINK-3589,PAYLOAD,2022-05-26 22:00:00,15.57979845,0.0001095,53.2174,112.4585,99.3857,271.4189,-0.010194,-0.00712028,0.0,0 STARLINK-3589,1 51997U 22025AT  22146.91667824 -.00712028  00000-0 -10194-1 0  9998,2 51997  53.2174 112.4585 0001095  99.3857 271.4189 15.57979845  1303,6771.641,92.427,394.24800000000016,392.765,0.0
51997.0,STARLINK-3589,PAYLOAD,2022-05-27 10:16:59,15.5851685,0.0001188,53.2101,110.0022,62.5331,297.5803,-0.002937,-0.00222761,0.0,0 STARLINK-3589,1 51997U 22025AT  22147.42846706 -.00222761  00000-0 -29370-2 0  9990,2 51997  53.2101 110.0022 0001188  62.5331 297.5803 15.58516850 13674,6770.0859999999975,92.396,392.755,391.147,0.0
51997.0,STARLINK-3589,PAYLOAD,2022-05-27 14:00:01,15.56962261,0.0001192,53.2173,109.233,98.9466,51.9058,-0.010662,-0.00716302,0.0,0 STARLINK-3589,1 51997U 22025AT  22147.58334491 -.00716302  00000-0 -10662-1 0  9992,2 51997  53.2173 109.2330 0001192  98.9466  51.9058 15.56962261  1302,6774.592,92.488,397.264,395.649,0.0
51997.0,STARLINK-3589,PAYLOAD,2022-05-27 20:00:01,15.56578963,0.0001138,53.2174,108.0235,85.3455,27.394,-0.010797,-0.00715112,0.0,0 STARLINK-3589,1 51997U 22025AT  22147.83334491 -.00715112  00000-0 -10797-1 0  9997,2 51997  53.2174 108.0235 0001138  85.3455  27.3940 15.56578963 13731,6775.704000000002,92.511,398.34,396.798,0.0
51997.0,STARLINK-3589,PAYLOAD,2022-05-27 22:00:01,15.56451112,0.000129,53.2176,107.621,90.9776,129.0452,-0.010816,-0.00713156,0.0,0 STARLINK-3589,1 51997U 22025AT  22147.91668981 -.00713156  00000-0 -10816-1 0  9998,2 51997  53.2176 107.6210 0001290  90.9776 129.0452 15.56451112  1302,6776.075,92.518,398.814,397.066,0.0
51997.0,STARLINK-3589,PAYLOAD,2022-05-28 14:00:01,15.55431691,0.0001087,53.2174,104.4027,105.2597,251.0703,-0.01127,-0.00715161,0.0,0 STARLINK-3589,1 51997U 22025AT  22148.58334491 -.00715161  00000-0 -11270-1 0  9991,2 51997  53.2174 104.4027 0001087 105.2597 251.0703 15.55431691  1300,6779.035,92.579,401.637,400.163,0.0
51997.0,STARLINK-3589,PAYLOAD,2022-05-28 20:00:01,15.5504688,0.0001138,53.2174,103.1961,96.1383,220.7652,-0.01136,-0.00711044,0.0,0 STARLINK-3589,1 51997U 22025AT  22148.83335648 -.00711044  00000-0 -11360-1 0  9990,2 51997  53.2174 103.1961 0001138  96.1383 220.7652 15.55046880 13896,6780.153,92.602,402.79,401.247,0.0
51997.0,STARLINK-3589,PAYLOAD,2022-05-28 22:00:00,15.54920499,0.0001074,53.2175,102.7948,87.1789,336.4185,-0.011439,-0.00712504,0.0,0 STARLINK-3589,1 51997U 22025AT  22148.91667824 -.00712504  00000-0 -11439-1 0  9992,2 51997  53.2175 102.7948 0001074  87.1789 336.4185 15.54920499  1301,6780.521,92.609,403.114,401.658,0.0
51997.0,STARLINK-3589,PAYLOAD,2022-05-29 14:00:01,15.5390278,0.0001289,53.2174,99.5836,105.561,90.7306,-0.011943,-0.00716223,0.0,0 STARLINK-3589,1 51997U 22025AT  22149.58334491 -.00716223  00000-0 -11943-1 0  9999,2 51997  53.2174  99.5836 0001289 105.5610  90.7306 15.53902780  1302,6783.481,92.67,406.22,404.472,0.0
51997.0,STARLINK-3589,PAYLOAD,2022-05-29 20:00:01,15.53519027,0.0001258,53.2172,98.3799,97.7308,57.6903,-0.012062,-0.00713502,0.0,0 STARLINK-3589,1 51997U 22025AT  22149.83334491 -.00713502  00000-0 -12062-1 0  9997,2 51997  53.2172  98.3799 0001258  97.7308  57.6903 15.53519027 14045,6784.598000000001,92.693,407.317,405.61,0.0
51997.0,STARLINK-3589,PAYLOAD,2022-05-29 20:53:17,15.54590588,0.0001336,53.2149,98.2182,115.5097,244.6053,-0.0025028,-0.00165277,0.0,0 STARLINK-3589,1 51997U 22025AT  22149.87034213 -.00165277  00000-0 -25028-2 0  9997,2 51997  53.2149  98.2182 0001336 115.5097 244.6053 15.54590588 12533,6781.48,92.629,404.251,402.439,0.0
51997.0,STARLINK-3589,PAYLOAD,2022-05-30 14:00:01,15.52370854,0.0001095999999999,53.2175,94.7756,111.7358,279.0038,-0.012566,-0.0071289,0.0,0 STARLINK-3589,1 51997U 22025AT  22150.58334491 -.00712890  00000-0 -12566-1 0  9999,2 51997  53.2175  94.7756 0001096 111.7358 279.0038 15.52370854  1309,6787.943,92.761,410.552,409.064,0.0
51997.0,STARLINK-3589,PAYLOAD,2022-05-30 20:03:20,15.53550203,0.0001462,53.2121,93.5859,88.1648,271.9531,-0.0030808,-0.0019504,0.0,0 STARLINK-3589,1 51997U 22025AT  22150.83565300 -.00195040  00000-0 -30808-2 0  9994,2 51997  53.2121  93.5859 0001462  88.1648 271.9531 15.53550203 14208,6784.507,92.691,407.364,405.38,0.0
51997.0,STARLINK-3589,PAYLOAD,2022-05-30 22:00:00,15.5174751,0.0001345,53.2165,93.1763,108.208,346.1855,-0.010088,-0.00569911,0.0,0 STARLINK-3589,1 51997U 22025AT  22150.91667824 -.00569911  00000-0 -10088-1 0  9996,2 51997  53.2165  93.1763 0001345 108.2080 346.1855 15.51747510  1308,6789.761,92.799,412.539,410.713,0.0
51997.0,STARLINK-3589,PAYLOAD,2022-05-31 03:47:17,15.52793553,0.0002125,53.2124,92.0401,13.8608,346.2462,-0.0029611,-0.00182707,0.0,0 STARLINK-3589,1 51997U 22025AT  22151.15783884 -.00182707  00000-0 -29611-2 0  9995,2 51997  53.2124  92.0401 0002125  13.8608 346.2462 15.52793553 14256,6786.7109999999975,92.736,410.018,407.134,0.0
51997.0,STARLINK-3589,PAYLOAD,2022-05-31 06:00:02,15.51206966,0.000134,53.2165,91.5795,97.1128,60.3367,-0.0094636,-0.00527202,0.0,0 STARLINK-3589,1 51997U 22025AT  22151.25002315 -.00527202  00000-0 -94636-2 0  9991,2 51997  53.2165  91.5795 0001340  97.1128  60.3367 15.51206966  1307,6791.3380000000025,92.831,414.11300000000006,412.293,0.0
